{
  "type": "FeatureCollection",
  "features": [
    {
      "type": "Feature",
      "properties": {
        "norad_id": 35669,
        "name": "COSMOS 2251 DEB",
        "group": "cosmos-2251-debris",
        "lat": 18.43365749467267,
        "lon": -31.719338966429838,
        "alt_km": 1106.6698558976032,
        "timestamp": "2025-12-16T03:53:27.451773+00:00",
        "meta_object_name": "COSMOS 2251 DEB",
        "meta_object_id": "1993-036APL",
        "meta_epoch": "2025-12-10T17:55:05.054592",
        "meta_mean_motion": 13.57151778,
        "meta_eccentricity": 0.03880721,
        "meta_inclination": 73.8635,
        "meta_ra_of_asc_node": 162.6479,
        "meta_arg_of_pericenter": 274.7966,
        "meta_mean_anomaly": 80.8943,
        "meta_ephemeris_type": 0,
        "meta_classification_type": "U",
        "meta_norad_cat_id": 35669,
        "meta_element_set_no": 999,
        "meta_rev_at_epoch": 60762,
        "meta_bstar": 0.0012765304,
        "meta_mean_motion_dot": 1.459e-05,
        "meta_mean_motion_ddot": 0,
        "tle_line1": "1 35669U 93036APL 25344.74658628  .00001459  00000+0  12765-2 0  9995",
        "tle_line2": "2 35669  73.8635 162.6479 0388072 274.7966  80.8943 13.57151778607625"
      },
      "geometry": {
        "type": "Point",
        "coordinates": [
          -31.719338966429838,
          18.43365749467267
        ]
      }
    },
    {
      "type": "Feature",
      "properties": {
        "norad_id": 35670,
        "name": "COSMOS 2251 DEB",
        "group": "cosmos-2251-debris",
        "lat": -2.0266971170772825,
        "lon": 56.952090826666385,
        "alt_km": 563.5181348795586,
        "timestamp": "2025-12-16T03:53:27.451783+00:00",
        "meta_object_name": "COSMOS 2251 DEB",
        "meta_object_id": "1993-036APM",
        "meta_epoch": "2025-12-14T21:21:55.582560",
        "meta_mean_motion": 14.93987644,
        "meta_eccentricity": 0.0037863,
        "meta_inclination": 73.8951,
        "meta_ra_of_asc_node": 60.1197,
        "meta_arg_of_pericenter": 20.3241,
        "meta_mean_anomaly": 339.9438,
        "meta_ephemeris_type": 0,
        "meta_classification_type": "U",
        "meta_norad_cat_id": 35670,
        "meta_element_set_no": 999,
        "meta_rev_at_epoch": 87759,
        "meta_bstar": 0.00068268578,
        "meta_mean_motion_dot": 7.347e-05,
        "meta_mean_motion_ddot": 0,
        "tle_line1": "1 35670U 93036APM 25348.89022665  .00007347  00000+0  68269-3 0  9996",
        "tle_line2": "2 35670  73.8951  60.1197 0037863  20.3241 339.9438 14.93987644877599"
      },
      "geometry": {
        "type": "Point",
        "coordinates": [
          56.952090826666385,
          -2.0266971170772825
        ]
      }
    },
    {
      "type": "Feature",
      "properties": {
        "norad_id": 35671,
        "name": "COSMOS 2251 DEB",
        "group": "cosmos-2251-debris",
        "lat": -52.18497135823875,
        "lon": -85.42806420797727,
        "alt_km": 708.6653075551249,
        "timestamp": "2025-12-16T03:53:27.451793+00:00",
        "meta_object_name": "COSMOS 2251 DEB",
        "meta_object_id": "1993-036APN",
        "meta_epoch": "2025-12-12T06:07:34.704192",
        "meta_mean_motion": 14.48347657,
        "meta_eccentricity": 0.00414664,
        "meta_inclination": 74.018,
        "meta_ra_of_asc_node": 80.2233,
        "meta_arg_of_pericenter": 254.3311,
        "meta_mean_anomaly": 138.579,
        "meta_ephemeris_type": 0,
        "meta_classification_type": "U",
        "meta_norad_cat_id": 35671,
        "meta_element_set_no": 999,
        "meta_rev_at_epoch": 86756,
        "meta_bstar": 0.00036575096,
        "meta_mean_motion_dot": 1.355e-05,
        "meta_mean_motion_ddot": 0,
        "tle_line1": "1 35671U 93036APN 25346.25526278  .00001355  00000+0  36575-3 0  9992",
        "tle_line2": "2 35671  74.0180  80.2233 0041466 254.3311 138.5790 14.48347657867566"
      },
      "geometry": {
        "type": "Point",
        "coordinates": [
          -85.42806420797727,
          -52.18497135823875
        ]
      }
    },
    {
      "type": "Feature",
      "properties": {
        "norad_id": 35674,
        "name": "COSMOS 2251 DEB",
        "group": "cosmos-2251-debris",
        "lat": -3.307929380110157,
        "lon": 130.99420319518373,
        "alt_km": 782.040266981041,
        "timestamp": "2025-12-16T03:53:27.451803+00:00",
        "meta_object_name": "COSMOS 2251 DEB",
        "meta_object_id": "1993-036APR",
        "meta_epoch": "2025-12-15T07:14:15.109728",
        "meta_mean_motion": 14.54253731,
        "meta_eccentricity": 0.0096109,
        "meta_inclination": 74.0598,
        "meta_ra_of_asc_node": 311.672,
        "meta_arg_of_pericenter": 355.8499,
        "meta_mean_anomaly": 4.1854,
        "meta_ephemeris_type": 0,
        "meta_classification_type": "U",
        "meta_norad_cat_id": 35674,
        "meta_element_set_no": 999,
        "meta_rev_at_epoch": 86148,
        "meta_bstar": 0.0013260752,
        "meta_mean_motion_dot": 5.952e-05,
        "meta_mean_motion_ddot": 0,
        "tle_line1": "1 35674U 93036APR 25349.30156377  .00005952  00000+0  13261-2 0  9996",
        "tle_line2": "2 35674  74.0598 311.6720 0096109 355.8499   4.1854 14.54253731861482"
      },
      "geometry": {
        "type": "Point",
        "coordinates": [
          130.99420319518373,
          -3.307929380110157
        ]
      }
    },
    {
      "type": "Feature",
      "properties": {
        "norad_id": 35701,
        "name": "COSMOS 2251 DEB",
        "group": "cosmos-2251-debris",
        "lat": -51.93480798169806,
        "lon": -84.8594810726725,
        "alt_km": 1165.9824594832571,
        "timestamp": "2025-12-16T03:53:27.451813+00:00",
        "meta_object_name": "COSMOS 2251 DEB",
        "meta_object_id": "1993-036APW",
        "meta_epoch": "2025-12-06T05:57:57.623904",
        "meta_mean_motion": 13.80843435,
        "meta_eccentricity": 0.02897209,
        "meta_inclination": 74.0028,
        "meta_ra_of_asc_node": 313.2955,
        "meta_arg_of_pericenter": 164.0681,
        "meta_mean_anomaly": 196.98,
        "meta_ephemeris_type": 0,
        "meta_classification_type": "U",
        "meta_norad_cat_id": 35701,
        "meta_element_set_no": 999,
        "meta_rev_at_epoch": 62069,
        "meta_bstar": 0.0021223911,
        "meta_mean_motion_dot": 3.05e-05,
        "meta_mean_motion_ddot": 0,
        "tle_line1": "1 35701U 93036APW 25340.24858361  .00003050  00000+0  21224-2 0  9998",
        "tle_line2": "2 35701  74.0028 313.2955 0289720 164.0681 196.9800 13.80843435620696"
      },
      "geometry": {
        "type": "Point",
        "coordinates": [
          -84.8594810726725,
          -51.93480798169806
        ]
      }
    },
    {
      "type": "Feature",
      "properties": {
        "norad_id": 35703,
        "name": "COSMOS 2251 DEB",
        "group": "cosmos-2251-debris",
        "lat": -47.59200060289514,
        "lon": -125.82653079219628,
        "alt_km": 628.8685450693165,
        "timestamp": "2025-12-16T03:53:27.451824+00:00",
        "meta_object_name": "COSMOS 2251 DEB",
        "meta_object_id": "1993-036APY",
        "meta_epoch": "2025-12-13T10:25:41.808288",
        "meta_mean_motion": 14.90369832,
        "meta_eccentricity": 0.0064635,
        "meta_inclination": 74.0427,
        "meta_ra_of_asc_node": 41.374,
        "meta_arg_of_pericenter": 111.0276,
        "meta_mean_anomaly": 249.7836,
        "meta_ephemeris_type": 0,
        "meta_classification_type": "U",
        "meta_norad_cat_id": 35703,
        "meta_element_set_no": 999,
        "meta_rev_at_epoch": 66626,
        "meta_bstar": 0.0011888649,
        "meta_mean_motion_dot": 0.00012023,
        "meta_mean_motion_ddot": 0,
        "tle_line1": "1 35703U 93036APY 25347.43451167  .00012023  00000+0  11889-2 0  9997",
        "tle_line2": "2 35703  74.0427  41.3740 0064635 111.0276 249.7836 14.90369832666265"
      },
      "geometry": {
        "type": "Point",
        "coordinates": [
          -125.82653079219628,
          -47.59200060289514
        ]
      }
    },
    {
      "type": "Feature",
      "properties": {
        "norad_id": 35705,
        "name": "COSMOS 2251 DEB",
        "group": "cosmos-2251-debris",
        "lat": 28.454925079842777,
        "lon": -59.52494032258956,
        "alt_km": 644.8853306834844,
        "timestamp": "2025-12-16T03:53:27.451834+00:00",
        "meta_object_name": "COSMOS 2251 DEB",
        "meta_object_id": "1993-036AQA",
        "meta_epoch": "2025-12-13T16:30:25.570944",
        "meta_mean_motion": 14.72285684,
        "meta_eccentricity": 0.00330748,
        "meta_inclination": 74.2763,
        "meta_ra_of_asc_node": 133.9994,
        "meta_arg_of_pericenter": 83.0917,
        "meta_mean_anomaly": 277.4017,
        "meta_ephemeris_type": 0,
        "meta_classification_type": "U",
        "meta_norad_cat_id": 35705,
        "meta_element_set_no": 999,
        "meta_rev_at_epoch": 85940,
        "meta_bstar": 0.003032246,
        "meta_mean_motion_dot": 0.00019351,
        "meta_mean_motion_ddot": 0,
        "tle_line1": "1 35705U 93036AQA 25347.68779596  .00019351  00000+0  30322-2 0  9999",
        "tle_line2": "2 35705  74.2763 133.9994 0033074  83.0917 277.4017 14.72285684859405"
      },
      "geometry": {
        "type": "Point",
        "coordinates": [
          -59.52494032258956,
          28.454925079842777
        ]
      }
    }
  ]
}